CTC2_L_00246016-03
1 26176U 26791X   26070.40844907  .00000000  00000+0  00000-0 0  9997
2 26176  90.0000 180.0000 0000000   0.0000   0.0000 14.15679949    18
CTC2_L_00246016-04
1 26177U 26771RK  26070.40844907  .00000000  00000+0  00000-0 0  9996
2 26177  90.0000 180.0000 0000000   0.0000  90.0000 14.15679949    18
CTC2_L_00246017-01
1 26178U 26015TO  26070.40844907  .00000000  00000+0  00000-0 0  9998
2 26178  90.0000 192.0000 0000000   0.0000 192.0000 14.15679949    15
CTC2_L_00246017-02
1 26179U 22845QG  26070.40844907  .00000000  00000+0  00000-0 0  9996
2 26179  90.0000 192.0000 0000000   0.0000 282.0000 14.15679949    16
CTC2_L_00246017-03
1 26180U 26206IA  26070.40844907  .00000000  00000+0  00000-0 0  9993
2 26180  90.0000 192.0000 0000000   0.0000  12.0000 14.15679949    19
CTC2_L_00246017-04
1 26181U 24674MP  26070.40844907  .00000000  00000+0  00000-0 0  9991
2 26181  90.0000 192.0000 0000000   0.0000 102.0000 14.15679949    10
CTC2_L_00246018-01
1 26182U 26801BI  26070.40844907  .00000000  00000+0  00000-0 0  9996
2 26182  90.0000 204.0000 0000000   0.0000 204.0000 14.15679949    18
CTC2_L_00246018-02
1 26183U 25540BL  26070.40844907  .00000000  00000+0  00000-0 0  9996
2 26183  90.0000 204.0000 0000000   0.0000 294.0000 14.15679949    18
CTC2_L_00246018-03
1 26184U 25484BE  26070.40844907  .00000000  00000+0  00000-0 0  9994
2 26184  90.0000 204.0000 0000000   0.0000  24.0000 14.15679949    10
CTC2_L_00246018-04
1 26185U 25227VI  26070.40844907  .00000000  00000+0  00000-0 0  9990
2 26185  90.0000 204.0000 0000000   0.0000 114.0000 14.15679949    11
CTC2_L_00246019-01
1 26186U 22226SA  26070.40844907  .00000000  00000+0  00000-0 0  9997
2 26186  90.0000 216.0000 0000000   0.0000 216.0000 14.15679949    18
CTC2_L_00246019-02
1 26187U 25106RD  26070.40844907  .00000000  00000+0  00000-0 0  9998
2 26187  90.0000 216.0000 0000000   0.0000 306.0000 14.15679949    19
CTC2_L_00246019-03
1 26188U 26120LT  26070.40844907  .00000000  00000+0  00000-0 0  9996
2 26188  90.0000 216.0000 0000000   0.0000  36.0000 14.15679949    10
CTC2_L_00246019-04
1 26189U 26365RN  26070.40844907  .00000000  00000+0  00000-0 0  9998
2 26189  90.0000 216.0000 0000000   0.0000 126.0000 14.15679949    11
CTC2_L_00246020-01
1 26190U 24818WB  26070.40844907  .00000000  00000+0  00000-0 0  9991
2 26190  90.0000 228.0000 0000000   0.0000 228.0000 14.15679949    19
CTC2_L_00246020-02
1 26191U 23380SQ  26070.40844907  .00000000  00000+0  00000-0 0  9995
2 26191  90.0000 228.0000 0000000   0.0000 318.0000 14.15679949    10
CTC2_L_00246020-03
1 26192U 23526J   26070.40844907  .00000000  00000+0  00000-0 0  9998
2 26192  90.0000 228.0000 0000000   0.0000  48.0000 14.15679949    11
CTC2_L_00246020-04
1 26193U 24918ZS  26070.40844907  .00000000  00000+0  00000-0 0  9995
2 26193  90.0000 228.0000 0000000   0.0000 138.0000 14.15679949    12
CTC2_L_00246021-01
1 26194U 25541AC  26070.40844907  .00000000  00000+0  00000-0 0  9999
2 26194  90.0000 240.0000 0000000   0.0000 240.0000 14.15679949    11
CTC2_L_00246021-02
1 26195U 25266SZ  26070.40844907  .00000000  00000+0  00000-0 0  9994
2 26195  90.0000 240.0000 0000000   0.0000 330.0000 14.15679949    12
CTC2_L_00246021-03
1 26196U 26464CB  26070.40844907  .00000000  00000+0  00000-0 0  9996
2 26196  90.0000 240.0000 0000000   0.0000  60.0000 14.15679949    13
CTC2_L_00246021-04
1 26197U 24578W   26070.40844907  .00000000  00000+0  00000-0 0  9991
2 26197  90.0000 240.0000 0000000   0.0000 150.0000 14.15679949    14
CTC2_L_00246022-01
1 26198U 23152DI  26070.40844907  .00000000  00000+0  00000-0 0  9999
2 26198  90.0000 252.0000 0000000   0.0000 252.0000 14.15679949    11
CTC2_L_00246022-02
1 26199U 25635XK  26070.40844907  .00000000  00000+0  00000-0 0  9998
2 26199  90.0000 252.0000 0000000   0.0000 342.0000 14.15679949    12
CTC2_L_00246022-03
1 26200U 23358WJ  26070.40844907  .00000000  00000+0  00000-0 0  9991
2 26200  90.0000 252.0000 0000000   0.0000  72.0000 14.15679949    15
CTC2_L_00246022-04
1 26201U 25064DN  26070.40844907  .00000000  00000+0  00000-0 0  9998
2 26201  90.0000 252.0000 0000000   0.0000 162.0000 14.15679949    16
CTC2_L_00246023-01
1 26202U 25689EJ  26070.40844907  .00000000  00000+0  00000-0 0  9992
2 26202  90.0000 264.0000 0000000   0.0000 264.0000 14.15679949    13
CTC2_L_00246023-02
1 26203U 26187L   26070.40844907  .00000000  00000+0  00000-0 0  9997
2 26203  90.0000 264.0000 0000000   0.0000 354.0000 14.15679949    14
CTC2_L_00246023-03
1 26204U 26166ZU  26070.40844907  .00000000  00000+0  00000-0 0  9995
2 26204  90.0000 264.0000 0000000   0.0000  84.0000 14.15679949    15
CTC2_L_00246023-04
1 26205U 24078BK  26070.40844907  .00000000  00000+0  00000-0 0  9996
2 26205  90.0000 264.0000 0000000   0.0000 174.0000 14.15679949    16
CTC2_L_00246024-01
1 26206U 25816YR  26070.40844907  .00000000  00000+0  00000-0 0  9998
2 26206  90.0000 276.0000 0000000   0.0000 276.0000 14.15679949    13
CTC2_L_00246024-02
1 26207U 23954OY  26070.40844907  .00000000  00000+0  00000-0 0  9990
2 26207  90.0000 276.0000 0000000   0.0000   6.0000 14.15679949    15
CTC2_L_00246024-03
1 26208U 25197VI  26070.40844907  .00000000  00000+0  00000-0 0  9992
2 26208  90.0000 276.0000 0000000   0.0000  96.0000 14.15679949    15
CTC2_L_00246024-04
1 26209U 25106ME  26070.40844907  .00000000  00000+0  00000-0 0  9993
2 26209  90.0000 276.0000 0000000   0.0000 186.0000 14.15679949    16
CTC2_L_00246025-01
1 26210U 25130ZH  26070.40844907  .00000000  00000+0  00000-0 0  9992
2 26210  90.0000 288.0000 0000000   0.0000 288.0000 14.15679949    14
CTC2_L_00246025-02
1 26211U 24063WR  26070.40844907  .00000000  00000+0  00000-0 0  9997
2 26211  90.0000 288.0000 0000000   0.0000  18.0000 14.15679949    16
CTC2_L_00246025-03
1 26212U 23078VU  26070.40844907  .00000000  00000+0  00000-0 0  9993
2 26212  90.0000 288.0000 0000000   0.0000 108.0000 14.15679949    17
CTC2_L_00246025-04
1 26213U 23139OZ  26070.40844907  .00000000  00000+0  00000-0 0  9992
2 26213  90.0000 288.0000 0000000   0.0000 198.0000 14.15679949    17
CTC2_L_00246026-01
1 26214U 23227UE  26070.40844907  .00000000  00000+0  00000-0 0  9991
2 26214  90.0000 300.0000 0000000   0.0000 300.0000 14.15679949    18
CTC2_L_00246026-02
1 26215U 24635AU  26070.40844907  .00000000  00000+0  00000-0 0  9996
2 26215  90.0000 300.0000 0000000   0.0000  30.0000 14.15679949    19
CTC2_L_00246026-03
1 26216U 25623IV  26070.40844907  .00000000  00000+0  00000-0 0  9995
2 26216  90.0000 300.0000 0000000   0.0000 120.0000 14.15679949    10
CTC2_L_00246026-04
1 26217U 26016UW  26070.40844907  .00000000  00000+0  00000-0 0  9993
2 26217  90.0000 300.0000 0000000   0.0000 210.0000 14.15679949    11
CTC2_L_00246027-01
1 26218U 25302IP  26070.40844907  .00000000  00000+0  00000-0 0  9991
2 26218  90.0000 312.0000 0000000   0.0000 312.0000 14.15679949    18
CTC2_L_00246027-02
1 26219U 25147XC  26070.40844907  .00000000  00000+0  00000-0 0  9999
2 26219  90.0000 312.0000 0000000   0.0000  42.0000 14.15679949    19
CTC2_L_00246027-03
1 26220U 22354XS  26070.40844907  .00000000  00000+0  00000-0 0  9998
2 26220  90.0000 312.0000 0000000   0.0000 132.0000 14.15679949    11
CTC2_L_00246027-04
1 26221U 22757OV  26070.40844907  .00000000  00000+0  00000-0 0  9996
2 26221  90.0000 312.0000 0000000   0.0000 222.0000 14.15679949    12
CTC2_L_00246028-01
1 26222U 26495UP  26070.40844907  .00000000  00000+0  00000-0 0  9990
2 26222  90.0000 324.0000 0000000   0.0000 324.0000 14.15679949    19
CTC2_L_00246028-02
1 26223U 23074HD  26070.40844907  .00000000  00000+0  00000-0 0  9991
2 26223  90.0000 324.0000 0000000   0.0000  54.0000 14.15679949    10
CTC2_L_00246028-03
1 26224U 23135MG  26070.40844907  .00000000  00000+0  00000-0 0  9990
2 26224  90.0000 324.0000 0000000   0.0000 144.0000 14.15679949    11
CTC2_L_00246028-04
1 26225U 26369HH  26070.40844907  .00000000  00000+0  00000-0 0  9993
2 26225  90.0000 324.0000 0000000   0.0000 234.0000 14.15679949    12
CTC2_L_00246029-01
1 26226U 25650OU  26070.40844907  .00000000  00000+0  00000-0 0  9996
2 26226  90.0000 336.0000 0000000   0.0000 336.0000 14.15679949    19
CTC2_L_00246029-02
1 26227U 24023BW  26070.40844907  .00000000  00000+0  00000-0 0  9990
2 26227  90.0000 336.0000 0000000   0.0000  66.0000 14.15679949    10
CTC2_L_00246029-03
1 26228U 25819WD  26070.40844907  .00000000  00000+0  00000-0 0  9995
2 26228  90.0000 336.0000 0000000   0.0000 156.0000 14.15679949    11
CTC2_L_00246029-04
1 26229U 26688XK  26070.40844907  .00000000  00000+0  00000-0 0  9991
2 26229  90.0000 336.0000 0000000   0.0000 246.0000 14.15679949    12
CTC2_L_00246030-01
1 26230U 24590KW  26070.40844907  .00000000  00000+0  00000-0 0  9993
2 26230  90.0000 348.0000 0000000   0.0000 348.0000 14.15679949    10
CTC2_L_00246030-02
1 26231U 23916FW  26070.40844907  .00000000  00000+0  00000-0 0  9995
2 26231  90.0000 348.0000 0000000   0.0000  78.0000 14.15679949    11
CTC2_L_00246030-03
1 26232U 26906LU  26070.40844907  .00000000  00000+0  00000-0 0  9998
2 26232  90.0000 348.0000 0000000   0.0000 168.0000 14.15679949    12
CTC2_L_00246030-04
1 26233U 24247EI  26070.40844907  .00000000  00000+0  00000-0 0  9995
2 26233  90.0000 348.0000 0000000   0.0000 258.0000 14.15679949    13
